"housenumber","street","city","state","zip","country"
"1","House Number Not Found","Street Not Found","St. Louis","Missouri","63102-1102","United States of America"
"2","House Number Not Found","Street Not Found","St. Louis","Missouri","63102-1102","United States of America"
"3","House Number Not Found","Street Not Found","St. Louis","Missouri","63102-1102","United States of America"
"4","House Number Not Found","Street Not Found","St. Louis","Missouri","63102-1102","United States of America"
"5","House Number Not Found","Street Not Found","St. Louis","Missouri","63102-1102","United States of America"
"6","House Number Not Found","Street Not Found","St. Louis","Missouri","63102-1102","United States of America"
"7","House Number Not Found","Street Not Found","St. Louis","Missouri","63102-1102","United States of America"
"8","House Number Not Found","Street Not Found","St. Louis","Missouri","63102-1102","United States of America"
"9","House Number Not Found","Street Not Found","St. Louis","Missouri","63102-1102","United States of America"
"10","House Number Not Found","Street Not Found","Frisco","Texas","75034","United States of America"
"11","1","Federal Street","Boston","Massachusetts","02110-1301","United States of America"
"12","150","West 15th Street","North Vancouver City","British Columbia","V7M","Canada"
"13","150","Greenwich Street","New York City","New York","10007","United States of America"
"14","700","5th Avenue","Seattle","Washington","98104","United States of America"
"15","House Number Not Found","Street Not Found","City Not Found","State Not Found","Postcode Not Found","Country Not Found"
"16","House Number Not Found","Street Not Found","St. Louis","Missouri","63102-1102","United States of America"
"17","House Number Not Found","Street Not Found","St. Louis","Missouri","63102-1102","United States of America"
"18","House Number Not Found","Street Not Found","St. Louis","Missouri","63102-1102","United States of America"
"19","House Number Not Found","Street Not Found","St. Louis","Missouri","63102-1102","United States of America"
"20","House Number Not Found","Street Not Found","St. Louis","Missouri","63102-1102","United States of America"
"21","House Number Not Found","Street Not Found","St. Louis","Missouri","63102-1102","United States of America"
"22","House Number Not Found","Street Not Found","St. Louis","Missouri","63102-1102","United States of America"
"23","House Number Not Found","Street Not Found","St. Louis","Missouri","63102-1102","United States of America"
"24","House Number Not Found","Street Not Found","St. Louis","Missouri","63102-1102","United States of America"
"25","House Number Not Found","Street Not Found","Frisco","Texas","75034","United States of America"
"26","1","Federal Street","Boston","Massachusetts","02110-1301","United States of America"
"27","150","West 15th Street","North Vancouver City","British Columbia","V7M","Canada"
"28","150","Greenwich Street","New York City","New York","10007","United States of America"
"29","700","5th Avenue","Seattle","Washington","98104","United States of America"
"30","House Number Not Found","Street Not Found","City Not Found","State Not Found","Postcode Not Found","Country Not Found"
"31","House Number Not Found","Street Not Found","St. Louis","Missouri","63102-1102","United States of America"
"32","House Number Not Found","Street Not Found","St. Louis","Missouri","63102-1102","United States of America"
"33","House Number Not Found","Street Not Found","St. Louis","Missouri","63102-1102","United States of America"
"34","House Number Not Found","Street Not Found","St. Louis","Missouri","63102-1102","United States of America"
"35","House Number Not Found","Street Not Found","St. Louis","Missouri","63102-1102","United States of America"
"36","House Number Not Found","Street Not Found","St. Louis","Missouri","63102-1102","United States of America"
"37","House Number Not Found","Street Not Found","St. Louis","Missouri","63102-1102","United States of America"
"38","House Number Not Found","Street Not Found","St. Louis","Missouri","63102-1102","United States of America"
"39","House Number Not Found","Street Not Found","St. Louis","Missouri","63102-1102","United States of America"
"40","House Number Not Found","Street Not Found","Frisco","Texas","75034","United States of America"
"41","1","Federal Street","Boston","Massachusetts","02110-1301","United States of America"
"42","150","West 15th Street","North Vancouver City","British Columbia","V7M","Canada"
"43","150","Greenwich Street","New York City","New York","10007","United States of America"
"44","700","5th Avenue","Seattle","Washington","98104","United States of America"
"45","House Number Not Found","Street Not Found","City Not Found","State Not Found","Postcode Not Found","Country Not Found"
"46","House Number Not Found","Street Not Found","St. Louis","Missouri","63102-1102","United States of America"
"47","House Number Not Found","Street Not Found","St. Louis","Missouri","63102-1102","United States of America"
"48","House Number Not Found","Street Not Found","St. Louis","Missouri","63102-1102","United States of America"
"49","House Number Not Found","Street Not Found","St. Louis","Missouri","63102-1102","United States of America"
"50","House Number Not Found","Street Not Found","St. Louis","Missouri","63102-1102","United States of America"
"51","House Number Not Found","Street Not Found","St. Louis","Missouri","63102-1102","United States of America"
"52","House Number Not Found","Street Not Found","St. Louis","Missouri","63102-1102","United States of America"
"53","House Number Not Found","Street Not Found","St. Louis","Missouri","63102-1102","United States of America"
"54","House Number Not Found","Street Not Found","St. Louis","Missouri","63102-1102","United States of America"
"55","House Number Not Found","Street Not Found","Frisco","Texas","75034","United States of America"
"56","1","Federal Street","Boston","Massachusetts","02110-1301","United States of America"
"57","150","West 15th Street","North Vancouver City","British Columbia","V7M","Canada"
"58","150","Greenwich Street","New York City","New York","10007","United States of America"
"59","700","5th Avenue","Seattle","Washington","98104","United States of America"
"60","House Number Not Found","Street Not Found","City Not Found","State Not Found","Postcode Not Found","Country Not Found"
"61","House Number Not Found","Street Not Found","St. Louis","Missouri","63102-1102","United States of America"
"62","House Number Not Found","Street Not Found","St. Louis","Missouri","63102-1102","United States of America"
"63","House Number Not Found","Street Not Found","St. Louis","Missouri","63102-1102","United States of America"
"64","House Number Not Found","Street Not Found","St. Louis","Missouri","63102-1102","United States of America"
"65","House Number Not Found","Street Not Found","St. Louis","Missouri","63102-1102","United States of America"
"66","House Number Not Found","Street Not Found","St. Louis","Missouri","63102-1102","United States of America"
"67","House Number Not Found","Street Not Found","St. Louis","Missouri","63102-1102","United States of America"
"68","House Number Not Found","Street Not Found","St. Louis","Missouri","63102-1102","United States of America"
"69","House Number Not Found","Street Not Found","St. Louis","Missouri","63102-1102","United States of America"
"70","House Number Not Found","Street Not Found","Frisco","Texas","75034","United States of America"
"71","1","Federal Street","Boston","Massachusetts","02110-1301","United States of America"
"72","150","West 15th Street","North Vancouver City","British Columbia","V7M","Canada"
"73","150","Greenwich Street","New York City","New York","10007","United States of America"
"74","700","5th Avenue","Seattle","Washington","98104","United States of America"
"75","House Number Not Found","Street Not Found","City Not Found","State Not Found","Postcode Not Found","Country Not Found"
"76","House Number Not Found","Street Not Found","St. Louis","Missouri","63102-1102","United States of America"
"77","House Number Not Found","Street Not Found","St. Louis","Missouri","63102-1102","United States of America"
"78","House Number Not Found","Street Not Found","St. Louis","Missouri","63102-1102","United States of America"
"79","House Number Not Found","Street Not Found","St. Louis","Missouri","63102-1102","United States of America"
"80","House Number Not Found","Street Not Found","St. Louis","Missouri","63102-1102","United States of America"
"81","House Number Not Found","Street Not Found","St. Louis","Missouri","63102-1102","United States of America"
"82","House Number Not Found","Street Not Found","St. Louis","Missouri","63102-1102","United States of America"
"83","House Number Not Found","Street Not Found","St. Louis","Missouri","63102-1102","United States of America"
"84","House Number Not Found","Street Not Found","St. Louis","Missouri","63102-1102","United States of America"
"85","House Number Not Found","Street Not Found","Frisco","Texas","75034","United States of America"
"86","1","Federal Street","Boston","Massachusetts","02110-1301","United States of America"
"87","150","West 15th Street","North Vancouver City","British Columbia","V7M","Canada"
"88","150","Greenwich Street","New York City","New York","10007","United States of America"
"89","700","5th Avenue","Seattle","Washington","98104","United States of America"
"90","House Number Not Found","Street Not Found","City Not Found","State Not Found","Postcode Not Found","Country Not Found"
"91","House Number Not Found","Street Not Found","St. Louis","Missouri","63102-1102","United States of America"
"92","House Number Not Found","Street Not Found","St. Louis","Missouri","63102-1102","United States of America"
"93","House Number Not Found","Street Not Found","St. Louis","Missouri","63102-1102","United States of America"
"94","House Number Not Found","Street Not Found","St. Louis","Missouri","63102-1102","United States of America"
"95","House Number Not Found","Street Not Found","St. Louis","Missouri","63102-1102","United States of America"
"96","House Number Not Found","Street Not Found","St. Louis","Missouri","63102-1102","United States of America"
"97","House Number Not Found","Street Not Found","St. Louis","Missouri","63102-1102","United States of America"
"98","House Number Not Found","Street Not Found","St. Louis","Missouri","63102-1102","United States of America"
"99","House Number Not Found","Street Not Found","St. Louis","Missouri","63102-1102","United States of America"
"100","House Number Not Found","Street Not Found","Frisco","Texas","75034","United States of America"
"101","1","Federal Street","Boston","Massachusetts","02110-1301","United States of America"
"102","150","West 15th Street","North Vancouver City","British Columbia","V7M","Canada"
"103","150","Greenwich Street","New York City","New York","10007","United States of America"
"104","700","5th Avenue","Seattle","Washington","98104","United States of America"
"105","House Number Not Found","Street Not Found","City Not Found","State Not Found","Postcode Not Found","Country Not Found"
"106","House Number Not Found","Street Not Found","St. Louis","Missouri","63102-1102","United States of America"
"107","House Number Not Found","Street Not Found","St. Louis","Missouri","63102-1102","United States of America"
"108","House Number Not Found","Street Not Found","St. Louis","Missouri","63102-1102","United States of America"
"109","House Number Not Found","Street Not Found","St. Louis","Missouri","63102-1102","United States of America"
"110","House Number Not Found","Street Not Found","St. Louis","Missouri","63102-1102","United States of America"
"111","House Number Not Found","Street Not Found","St. Louis","Missouri","63102-1102","United States of America"
"112","House Number Not Found","Street Not Found","St. Louis","Missouri","63102-1102","United States of America"
"113","House Number Not Found","Street Not Found","St. Louis","Missouri","63102-1102","United States of America"
"114","House Number Not Found","Street Not Found","St. Louis","Missouri","63102-1102","United States of America"
"115","House Number Not Found","Street Not Found","Frisco","Texas","75034","United States of America"
"116","1","Federal Street","Boston","Massachusetts","02110-1301","United States of America"
"117","150","West 15th Street","North Vancouver City","British Columbia","V7M","Canada"
"118","150","Greenwich Street","New York City","New York","10007","United States of America"
"119","700","5th Avenue","Seattle","Washington","98104","United States of America"
"120","House Number Not Found","Street Not Found","City Not Found","State Not Found","Postcode Not Found","Country Not Found"
"121","House Number Not Found","Street Not Found","St. Louis","Missouri","63102-1102","United States of America"
"122","House Number Not Found","Street Not Found","St. Louis","Missouri","63102-1102","United States of America"
"123","House Number Not Found","Street Not Found","St. Louis","Missouri","63102-1102","United States of America"
"124","House Number Not Found","Street Not Found","St. Louis","Missouri","63102-1102","United States of America"
"125","House Number Not Found","Street Not Found","St. Louis","Missouri","63102-1102","United States of America"
"126","House Number Not Found","Street Not Found","St. Louis","Missouri","63102-1102","United States of America"
"127","House Number Not Found","Street Not Found","St. Louis","Missouri","63102-1102","United States of America"
"128","House Number Not Found","Street Not Found","St. Louis","Missouri","63102-1102","United States of America"
"129","House Number Not Found","Street Not Found","St. Louis","Missouri","63102-1102","United States of America"
"130","House Number Not Found","Street Not Found","Frisco","Texas","75034","United States of America"
"131","1","Federal Street","Boston","Massachusetts","02110-1301","United States of America"
"132","150","West 15th Street","North Vancouver City","British Columbia","V7M","Canada"
"133","150","Greenwich Street","New York City","New York","10007","United States of America"
"134","700","5th Avenue","Seattle","Washington","98104","United States of America"
"135","House Number Not Found","Street Not Found","City Not Found","State Not Found","Postcode Not Found","Country Not Found"
